personid,name,email,dob,address1,city,state,majorids,bedid
00c9310a-b2b2-4203-9eac-9d4a569e3e55,Linda Williams,linda.williams@example.com,1961-07-15,166 Cedar St,Fairview,TX,"fe8da200-3e6c-4017-983e-19b5aff7e800, 4ff85e34-9da3-47f2-beee-ec6175d82186, 37b5c1f9-c15a-4947-b64d-025dc64c5241, f66e3050-2b7f-4d30-bc1e-f1c26d6a2aa2",c33a4c1d-b970-4518-bb65-3550d18f5b8d
031f01e9-db0e-446f-8d2c-df886d6b34f7,Jane Doe,jane.doe@example.com,1982-07-28,956 Oak St,Georgetown,PA,"9cbfac3c-fb8a-4ebd-b677-c223a57ac329, febd48e5-fa29-4288-94cf-a257e875bbc5, 5e03ed8a-d9fb-4271-aa1d-73df523dcc57",76acac9e-baa1-47d2-8b78-df943bf93255
03d82f77-18c3-435b-bc04-d6d8a6124088,Emily Davis,emily.davis@example.com,1973-02-08,514 Maple St,Springfield,FL,"5538f94c-9d38-4c6c-ab29-0987d27ec313, 4fc222e3-9728-408a-b24b-171c919f81ea, 49150744-aac2-44f9-8ca0-05ae90757bac",
0458c670-b7af-49bf-aca2-00bc0c1a45c7,Jane Miller,jane.miller@example.com,1955-12-20,562 Elm St,Riverside,CA,"cc5f8133-74b9-43cc-b15e-b159a78b93fd, e6f83c77-1538-4fec-934c-6a4ec6617268, 4fc222e3-9728-408a-b24b-171c919f81ea, 2ab329ca-9f50-4c70-9698-f44934cf4b69",
06a21a8d-a101-4b7f-bf91-9e3102a64ccb,Sarah Williams,sarah.williams@example.com,1970-10-26,331 Spruce St,Madison,OH,fe8da200-3e6c-4017-983e-19b5aff7e800,96213702-2438-44c2-b6d3-856efc2cf271
0822434d-6dae-4389-a42d-eec97f0a423b,David Brown,david.brown@example.com,1956-01-08,198 Spruce St,Greenville,TX,"4ff85e34-9da3-47f2-beee-ec6175d82186, 34c2e9da-d62c-4fdd-ad94-7befd2595222, 036ab592-da37-4aac-ac4b-3a2eb132eb76, 1e0b04ba-18d5-4ab9-a1e5-23449bbc4a0b",9dab9027-731d-45b5-9224-3129ddfe1a64
0c26e163-59ad-42cb-bff3-2a736c4b6938,Jane Taylor,jane.taylor@example.com,1969-01-18,435 Walnut St,Georgetown,TX,"2c4e188e-85c2-4366-b282-d70974be0631, 34c2e9da-d62c-4fdd-ad94-7befd2595222",554cd2d0-8370-49b5-8047-9f112052c13c
0f5789ab-abe5-430d-acd9-974e0bdea9ab,John Moore,john.moore@example.com,1980-01-28,482 Pine St,Riverside,CA,"9cbfac3c-fb8a-4ebd-b677-c223a57ac329, b12e86e4-dc4d-49cb-8ec3-b0c9f7f23b26, 4ad06de7-beaf-454c-aeda-59316f4a641c",c2c085a5-3e37-4b97-a84c-e3685da98b67
0f7cc080-60af-4d7c-86a6-9780b2c6c071,David Doe,david.doe@example.com,2000-11-06,481 Pine St,Fairview,NY,"3100982d-c037-4a3f-a3ed-83e66b248c8d, fe8da200-3e6c-4017-983e-19b5aff7e800",
1165db9d-e797-433d-a758-4445586f5229,Emily Wilson,emily.wilson@example.com,1965-10-05,472 Pine St,Springfield,FL,,
13621910-20ea-44a4-aa92-c693d8ea633a,James Williams,james.williams@example.com,1975-12-05,664 Walnut St,Greenville,OH,f66e3050-2b7f-4d30-bc1e-f1c26d6a2aa2,
142acb55-ff69-46b8-8c48-9c9476bf4fd0,David Moore,david.moore@example.com,1979-04-20,586 Birch St,Riverside,NY,"c782f52b-d7ac-47f5-836a-376e4fccf31f, fcda77f1-d71f-4cbe-bb5c-fb12877aec40, 5e03ed8a-d9fb-4271-aa1d-73df523dcc57, e6f83c77-1538-4fec-934c-6a4ec6617268",3ee0d130-c200-4717-a20a-950cfb8824fc
1f8424be-ec2c-4c65-b462-a362ac104ea5,Bob Smith,bob.smith@example.com,1977-12-21,492 Maple St,Georgetown,IL,"e4aa68ec-6374-48d4-a36d-8ca39ac807a2, c782f52b-d7ac-47f5-836a-376e4fccf31f, f66e3050-2b7f-4d30-bc1e-f1c26d6a2aa2",659273b3-0848-412d-90bb-3ba488ca8175
2031f31d-8fe5-4248-b07f-b2e01b4724cf,Michael Miller,michael.miller@example.com,1974-05-19,329 Walnut St,Georgetown,OH,"39af2a17-08ce-4282-8dd0-de4efe79980f, bc618e46-adeb-4bfa-a8dc-9e7a3bbad058, 036ab592-da37-4aac-ac4b-3a2eb132eb76, efbed11c-6828-4d9a-bdc3-ffadce27497e",
232aad83-7d54-4809-aaa6-cfaaab33f1c4,James Johnson,james.johnson@example.com,1967-12-23,988 Pine St,Springfield,NY,2ab329ca-9f50-4c70-9698-f44934cf4b69,
27e7edc1-597d-437d-bbfa-bd0abe18edd9,Sarah Wilson,sarah.wilson@example.com,1951-07-01,714 Walnut St,Springfield,IL,"3100982d-c037-4a3f-a3ed-83e66b248c8d, 9cbfac3c-fb8a-4ebd-b677-c223a57ac329",
2aa0add0-1d9f-4e28-97bd-18e047112399,Alice Davis,alice.davis@example.com,1996-03-31,608 Cedar St,Springfield,IL,"4fc222e3-9728-408a-b24b-171c919f81ea, febd48e5-fa29-4288-94cf-a257e875bbc5, 6dfeb9a0-918b-4038-ae4f-63ab374b9311, e4aa68ec-6374-48d4-a36d-8ca39ac807a2",
2accfcef-35d3-4104-bfff-8e899405c8f4,Bob Davis,bob.davis@example.com,1982-04-01,548 Spruce St,Salem,CA,1e0b04ba-18d5-4ab9-a1e5-23449bbc4a0b,
2ceed1d5-397a-4b90-9e3a-d4f49d539c81,John Davis,john.davis@example.com,1978-06-03,780 Walnut St,Salem,OH,b12e86e4-dc4d-49cb-8ec3-b0c9f7f23b26,504edd03-718f-4037-a7cc-9d491ff978cf
36e95762-9b65-4df3-a9a5-88faa26d5cd7,Jane Davis,jane.davis@example.com,1981-01-21,271 Maple St,Springfield,IL,"f66e3050-2b7f-4d30-bc1e-f1c26d6a2aa2, 4ff85e34-9da3-47f2-beee-ec6175d82186, fcda77f1-d71f-4cbe-bb5c-fb12877aec40",8c2c4997-76a2-406b-88c1-ab9312ac975f
38aa7e33-08e9-450a-ae1f-1cf926493cb8,David Smith,david.smith@example.com,1998-07-27,498 Walnut St,Madison,FL,"efbed11c-6828-4d9a-bdc3-ffadce27497e, 4ad06de7-beaf-454c-aeda-59316f4a641c, 49f57722-52fb-47b6-8e1e-54de177e0d19",
38ba935f-27c2-4646-b05a-be68376785ac,David Davis,david.davis@example.com,1957-05-16,893 Walnut St,Madison,PA,,
3de6844c-2dc5-4ca3-bd1a-cb9550d06683,Bob Miller,bob.miller@example.com,1956-07-23,727 Pine St,Springfield,IL,"c782f52b-d7ac-47f5-836a-376e4fccf31f, 39af2a17-08ce-4282-8dd0-de4efe79980f, bcf5b4b8-c773-40a4-9ec1-9767753c0d44",b094a6d2-22c7-400f-9e5a-8e50ccb9ed1e
3ff52f27-5f8e-4767-b1cd-549f2f244cc5,Emily Taylor,emily.taylor@example.com,1997-01-09,286 Spruce St,Salem,NY,"efbed11c-6828-4d9a-bdc3-ffadce27497e, f6cf2da9-277c-4780-8c18-2a4727d35f64, 34c2e9da-d62c-4fdd-ad94-7befd2595222, 31a96803-e0b0-464c-b44c-14316de7195f, b43b2475-66e9-49df-b826-4dbb0bb15b8b",c2e2984c-72bb-4ebe-8798-25199bba2d3b
4200e7aa-a8f6-4f8c-9a01-2485df3815c5,Sarah Davis,sarah.davis@example.com,1954-07-10,672 Pine St,Riverside,TX,"f66e3050-2b7f-4d30-bc1e-f1c26d6a2aa2, 4fc222e3-9728-408a-b24b-171c919f81ea, 49f57722-52fb-47b6-8e1e-54de177e0d19, 5538f94c-9d38-4c6c-ab29-0987d27ec313",
46fef775-1c36-49ed-9f9b-cedf62451aa9,Michael Davis,michael.davis@example.com,1952-07-08,156 Elm St,Riverside,FL,"9630ccdb-1fb5-411d-a129-562993ba0569, b43b2475-66e9-49df-b826-4dbb0bb15b8b, fe8da200-3e6c-4017-983e-19b5aff7e800, 4ad06de7-beaf-454c-aeda-59316f4a641c",d5af848d-fc90-4c49-b98a-5c03dc67b4b7
48d9bd03-4aa6-42ef-9d94-89ac6d706f31,Michael Moore,michael.moore@example.com,1982-05-05,983 Spruce St,Georgetown,FL,"e00c66ff-cb22-45b1-a5e8-8b3cde249016, b43b2475-66e9-49df-b826-4dbb0bb15b8b, 2c4e188e-85c2-4366-b282-d70974be0631, febd48e5-fa29-4288-94cf-a257e875bbc5, 1e0b04ba-18d5-4ab9-a1e5-23449bbc4a0b",
49971008-a852-43d2-9384-8ed9d7d03ff1,Michael Williams,michael.williams@example.com,1975-08-11,399 Elm St,Springfield,OH,"5d92edf2-5248-4363-8e50-f18ad6a67a8c, 5538f94c-9d38-4c6c-ab29-0987d27ec313",dbd2e950-a667-491d-a6f0-445b3c68d30f
4a8ab838-82f8-45e2-8109-978b8f4fafcf,Jane Moore,jane.moore@example.com,1994-06-05,291 Elm St,Salem,FL,,
4faa343a-f19b-4a74-b967-f3e50e37b290,Sarah Taylor,sarah.taylor@example.com,1961-03-04,388 Pine St,Springfield,IL,"efbed11c-6828-4d9a-bdc3-ffadce27497e, e00c66ff-cb22-45b1-a5e8-8b3cde249016, 036ab592-da37-4aac-ac4b-3a2eb132eb76, b12e86e4-dc4d-49cb-8ec3-b0c9f7f23b26",95abc0d1-792a-4a21-8f70-a6d313362385
53ad7692-03ea-4bdb-be02-1761a5081b58,John Miller,john.miller@example.com,1977-03-01,810 Oak St,Salem,TX,"9cbfac3c-fb8a-4ebd-b677-c223a57ac329, c782f52b-d7ac-47f5-836a-376e4fccf31f, 4ff85e34-9da3-47f2-beee-ec6175d82186, 9cbfac3c-fb8a-4ebd-b677-c223a57ac329, 5d92edf2-5248-4363-8e50-f18ad6a67a8c",fc9c0ac0-7996-48b5-954b-e1f4c35d1065
56c484ad-c824-4c64-82e6-ec4cfa80b75c,Emily Smith,emily.smith@example.com,1965-07-06,641 Oak St,Salem,OH,"e6f83c77-1538-4fec-934c-6a4ec6617268, 5538f94c-9d38-4c6c-ab29-0987d27ec313, 4fc222e3-9728-408a-b24b-171c919f81ea, 31a96803-e0b0-464c-b44c-14316de7195f, b12e86e4-dc4d-49cb-8ec3-b0c9f7f23b26",0a00323a-53f8-4dfa-917b-e7fd8ba84680
57aa8bb0-296b-49db-b6fb-751f54b966c2,John Doe,john.doe@example.com,1951-01-03,782 Oak St,Riverside,PA,"34c2e9da-d62c-4fdd-ad94-7befd2595222, 9630ccdb-1fb5-411d-a129-562993ba0569, dda17862-a51d-49f5-bc9f-b2caa7af10ef, f66e3050-2b7f-4d30-bc1e-f1c26d6a2aa2, f6cf2da9-277c-4780-8c18-2a4727d35f64",5e14bc85-7c1f-48d9-8b91-8f72dd15c7ed
58760b81-3121-4788-a669-d557747a5d53,Emily Doe,emily.doe@example.com,1959-03-10,214 Spruce St,Georgetown,OH,"49150744-aac2-44f9-8ca0-05ae90757bac, 9630ccdb-1fb5-411d-a129-562993ba0569, f6cf2da9-277c-4780-8c18-2a4727d35f64, febd48e5-fa29-4288-94cf-a257e875bbc5",90e78cb4-b33e-4f12-813a-8d8a0554e84e
58dcf221-3c88-4a63-add9-52e79fd84fe5,James Davis,james.davis@example.com,1997-11-23,694 Oak St,Riverside,PA,,72785460-738c-4021-a984-e525834d45b1
6346d030-d81d-4cd9-a120-dbe25fefb8cf,Michael Doe,michael.doe@example.com,1965-08-25,434 Pine St,Riverside,TX,"cc5f8133-74b9-43cc-b15e-b159a78b93fd, 2c6e4248-da4d-4cb3-ac58-3cd04aa203fa, b12e86e4-dc4d-49cb-8ec3-b0c9f7f23b26, b43b2475-66e9-49df-b826-4dbb0bb15b8b, f6cf2da9-277c-4780-8c18-2a4727d35f64",
65f06717-13ed-4646-b642-1b01d91eb8b9,Bob Johnson,bob.johnson@example.com,1978-11-24,566 Cedar St,Greenville,NY,"dda17862-a51d-49f5-bc9f-b2caa7af10ef, 1e0b04ba-18d5-4ab9-a1e5-23449bbc4a0b, 3100982d-c037-4a3f-a3ed-83e66b248c8d, 9630ccdb-1fb5-411d-a129-562993ba0569",
6bbde890-edfb-4107-a905-3e5a1894f628,Linda Doe,linda.doe@example.com,1951-10-10,687 Walnut St,Springfield,OH,fe8da200-3e6c-4017-983e-19b5aff7e800,
6bd9f32a-6171-4173-b49e-06e2e4ed884f,Jane Brown,jane.brown@example.com,1971-04-18,641 Spruce St,Springfield,OH,e4aa68ec-6374-48d4-a36d-8ca39ac807a2,f4257b38-75ca-4dd1-b0ec-43eea6d13891
6c8ef60a-a777-4272-95a8-bba605ff10ac,Jane Williams,jane.williams@example.com,1970-06-05,444 Pine St,Riverside,NY,fcda77f1-d71f-4cbe-bb5c-fb12877aec40,
6cbd8677-d58b-46ea-bfce-8cdd50707b88,Linda Brown,linda.brown@example.com,1983-05-24,677 Pine St,Madison,IL,,9e8b45c5-726c-4370-a887-9313d6ddaa8f
6ce80835-b8a6-455a-8d4e-555eb7b9ba1b,Bob Wilson,bob.wilson@example.com,1952-06-01,564 Pine St,Salem,TX,"32a60bdd-f493-4c44-a9e2-e45c0209be5e, 5538f94c-9d38-4c6c-ab29-0987d27ec313, 31a96803-e0b0-464c-b44c-14316de7195f",
6d6f3306-7ba7-434e-9b6f-35edd38184bd,John Taylor,john.taylor@example.com,1996-11-19,420 Elm St,Riverside,IL,f66e3050-2b7f-4d30-bc1e-f1c26d6a2aa2,a449430c-288a-4b7f-8a84-dc6ee4911032
762d85f0-d416-48a4-8ab4-8f27e6322abf,Alice Moore,alice.moore@example.com,1992-08-13,934 Cedar St,Madison,TX,"5e03ed8a-d9fb-4271-aa1d-73df523dcc57, 2c4e188e-85c2-4366-b282-d70974be0631, b43b2475-66e9-49df-b826-4dbb0bb15b8b, bc618e46-adeb-4bfa-a8dc-9e7a3bbad058",c8edb9dd-50f7-48c1-b840-ebc211820001
78f7279e-b154-4e12-983e-3713ae14caa4,Sarah Smith,sarah.smith@example.com,1979-11-24,873 Pine St,Madison,NY,"9cbfac3c-fb8a-4ebd-b677-c223a57ac329, 1e0b04ba-18d5-4ab9-a1e5-23449bbc4a0b, 32a60bdd-f493-4c44-a9e2-e45c0209be5e, dda17862-a51d-49f5-bc9f-b2caa7af10ef, 4fc222e3-9728-408a-b24b-171c919f81ea",87de1f1d-7e4d-4808-a191-d18cedefce72
7b1fb398-72d7-421e-808c-631a427bfbc4,David Taylor,david.taylor@example.com,1992-08-15,767 Walnut St,Georgetown,OH,2c6e4248-da4d-4cb3-ac58-3cd04aa203fa,
7de927a0-5f3d-47e2-8e36-222fa018f2d2,David Williams,david.williams@example.com,1957-02-15,295 Cedar St,Greenville,FL,,f7b23fdc-50a6-4e90-ae5e-096c309ac002
7f2070cb-f225-444d-a7c9-a7e978b09c80,Jane Smith,jane.smith@example.com,1996-06-17,923 Walnut St,Greenville,PA,"036ab592-da37-4aac-ac4b-3a2eb132eb76, fcda77f1-d71f-4cbe-bb5c-fb12877aec40, 4ad06de7-beaf-454c-aeda-59316f4a641c, 3100982d-c037-4a3f-a3ed-83e66b248c8d, b12e86e4-dc4d-49cb-8ec3-b0c9f7f23b26",0d9db8ae-4a59-4268-8a82-6f77ab96f9f7
821c6556-10d2-46f3-9055-6864dcfd2de4,Sarah Moore,sarah.moore@example.com,1985-06-20,144 Oak St,Riverside,TX,,8c67d2ac-c3ec-49fe-9296-89d2c716cd11
8670a3c6-0047-44be-996e-7d798cedc584,David Johnson,david.johnson@example.com,1993-02-21,372 Maple St,Riverside,IL,"fe8da200-3e6c-4017-983e-19b5aff7e800, 32a60bdd-f493-4c44-a9e2-e45c0209be5e, 52e4d490-31bd-48ea-ab9b-8f9eaf720b12, 31a96803-e0b0-464c-b44c-14316de7195f",52d8d1e3-d91a-4cc6-baf0-1f5226fad5a5
8e0713df-1177-4a37-876e-f337fd138a42,John Wilson,john.wilson@example.com,1963-09-26,856 Birch St,Madison,CA,b12e86e4-dc4d-49cb-8ec3-b0c9f7f23b26,
8e16e3de-491e-4d75-ab7c-a3b08f70d741,Linda Taylor,linda.taylor@example.com,1964-03-10,675 Birch St,Fairview,TX,,8e6ed3c0-98db-45ca-b04f-fee011e89c3d
9029bd80-06d7-44d5-9e64-dac9bb0c3ebf,Emily Brown,emily.brown@example.com,1983-09-14,573 Cedar St,Riverside,IL,"49150744-aac2-44f9-8ca0-05ae90757bac, f6cf2da9-277c-4780-8c18-2a4727d35f64, f66e3050-2b7f-4d30-bc1e-f1c26d6a2aa2, c782f52b-d7ac-47f5-836a-376e4fccf31f",
9080e0b8-2eb9-4ea6-bd90-efb6f5e0b830,Linda Miller,linda.miller@example.com,1974-02-20,114 Pine St,Madison,NY,"5d92edf2-5248-4363-8e50-f18ad6a67a8c, 1e0b04ba-18d5-4ab9-a1e5-23449bbc4a0b, c782f52b-d7ac-47f5-836a-376e4fccf31f, dda17862-a51d-49f5-bc9f-b2caa7af10ef, 4ad06de7-beaf-454c-aeda-59316f4a641c",
92800c94-b87b-456c-ba4f-3568541c3ae2,Michael Brown,michael.brown@example.com,1981-06-28,654 Pine St,Riverside,NY,"5d92edf2-5248-4363-8e50-f18ad6a67a8c, b12e86e4-dc4d-49cb-8ec3-b0c9f7f23b26",
946bd63f-3541-4e8c-b95e-36b646ac2647,James Moore,james.moore@example.com,1991-01-13,840 Walnut St,Greenville,FL,f6cf2da9-277c-4780-8c18-2a4727d35f64,11dbe48f-71c5-42d2-b2d3-0c370975de96
98b63eef-2be4-4f9c-a228-8f00cd47ab65,Linda Davis,linda.davis@example.com,1961-05-17,407 Pine St,Georgetown,IL,"5e03ed8a-d9fb-4271-aa1d-73df523dcc57, 5d92edf2-5248-4363-8e50-f18ad6a67a8c, bcf5b4b8-c773-40a4-9ec1-9767753c0d44, 3100982d-c037-4a3f-a3ed-83e66b248c8d",
9c208150-7536-44b2-baac-4d2d5dc936af,Bob Moore,bob.moore@example.com,1997-03-15,327 Elm St,Springfield,IL,,b192674d-e290-4405-8e93-8b21422a684b
9c949778-a5dd-4e7f-a4cb-375f01d52bc0,Bob Williams,bob.williams@example.com,1975-07-04,859 Walnut St,Greenville,CA,"9cbfac3c-fb8a-4ebd-b677-c223a57ac329, 2c4e188e-85c2-4366-b282-d70974be0631, 2ab329ca-9f50-4c70-9698-f44934cf4b69, 2c4e188e-85c2-4366-b282-d70974be0631",
9f5ff400-f8d6-44fd-800d-1f2d13935261,Linda Smith,linda.smith@example.com,1974-05-25,659 Oak St,Georgetown,PA,"cc5f8133-74b9-43cc-b15e-b159a78b93fd, 6dfeb9a0-918b-4038-ae4f-63ab374b9311",
a22d532b-5353-4596-ae5e-288f1f98b3b9,James Miller,james.miller@example.com,1976-05-21,781 Oak St,Georgetown,OH,"521b6a84-52f2-488c-b310-c95ae8ff1021, cc5f8133-74b9-43cc-b15e-b159a78b93fd, 32a60bdd-f493-4c44-a9e2-e45c0209be5e",fd0af325-3756-484b-8b9b-bfe8fe6eeaf5
ab835145-e9ec-46fc-91b3-ecc6394e45ec,Linda Johnson,linda.johnson@example.com,1991-12-26,802 Walnut St,Salem,PA,"036ab592-da37-4aac-ac4b-3a2eb132eb76, fe8da200-3e6c-4017-983e-19b5aff7e800, 2ab329ca-9f50-4c70-9698-f44934cf4b69, dda17862-a51d-49f5-bc9f-b2caa7af10ef, fcda77f1-d71f-4cbe-bb5c-fb12877aec40",7d56da48-7a94-4f7f-9cb3-43ffbf56da33
ad875a0e-a580-47ba-b47e-e5e160064c15,David Miller,david.miller@example.com,1964-11-03,545 Walnut St,Springfield,PA,,5fe42532-b61d-4c3c-a529-635cf939a887
adbf65b6-c6dd-4b88-93d8-95d4a8121f72,James Doe,james.doe@example.com,1999-12-01,111 Cedar St,Georgetown,NY,"32a60bdd-f493-4c44-a9e2-e45c0209be5e, 1e0b04ba-18d5-4ab9-a1e5-23449bbc4a0b, 036ab592-da37-4aac-ac4b-3a2eb132eb76, fe8da200-3e6c-4017-983e-19b5aff7e800",aebe64a6-d00a-49ff-be4a-f8393b610e7c
af6b4f35-afe2-4fdc-8728-6cd6f9324bb8,James Smith,james.smith@example.com,1970-02-17,114 Elm St,Springfield,PA,"bcf5b4b8-c773-40a4-9ec1-9767753c0d44, e6f83c77-1538-4fec-934c-6a4ec6617268, 4fc222e3-9728-408a-b24b-171c919f81ea",a2823a5b-131a-4a80-80dd-3594c4ae0914
afce117e-f675-4c8c-b830-7d0624c35d40,Michael Smith,michael.smith@example.com,1966-05-18,970 Pine St,Georgetown,OH,"39af2a17-08ce-4282-8dd0-de4efe79980f, c782f52b-d7ac-47f5-836a-376e4fccf31f, 5538f94c-9d38-4c6c-ab29-0987d27ec313",
b475a4ee-aeb3-40bd-9e0a-7f8590679035,Alice Taylor,alice.taylor@example.com,1954-05-17,219 Elm St,Greenville,IL,"e4aa68ec-6374-48d4-a36d-8ca39ac807a2, 31a96803-e0b0-464c-b44c-14316de7195f, 5e03ed8a-d9fb-4271-aa1d-73df523dcc57, 39af2a17-08ce-4282-8dd0-de4efe79980f, 1e0b04ba-18d5-4ab9-a1e5-23449bbc4a0b",83ba9dee-2670-4424-bcb8-6a880716e6e1
b4972f9a-92b3-44d8-a9b7-0697b454e2cf,Linda Wilson,linda.wilson@example.com,1980-07-17,945 Maple St,Fairview,CA,,
bae15e6d-8199-4a9e-b7f6-b4c471547018,Alice Doe,alice.doe@example.com,1950-05-03,149 Oak St,Springfield,TX,6dfeb9a0-918b-4038-ae4f-63ab374b9311,
bb8dea34-8876-4774-aa0f-db99c2822c28,Linda Moore,linda.moore@example.com,1965-01-29,511 Maple St,Greenville,CA,"dda17862-a51d-49f5-bc9f-b2caa7af10ef, cc5f8133-74b9-43cc-b15e-b159a78b93fd, 3100982d-c037-4a3f-a3ed-83e66b248c8d, e00c66ff-cb22-45b1-a5e8-8b3cde249016",
bc199deb-5d1c-4d26-93d9-044a57f3cf17,John Johnson,john.johnson@example.com,1997-05-09,459 Elm St,Greenville,FL,"f6cf2da9-277c-4780-8c18-2a4727d35f64, 32a60bdd-f493-4c44-a9e2-e45c0209be5e",
bcba9467-c68e-464d-a01c-003dd316c774,Bob Taylor,bob.taylor@example.com,1999-11-10,198 Maple St,Georgetown,TX,,aba54117-64ad-422a-b024-3dbf2351514e
c0119476-6604-43ba-855a-2a08535c9922,Alice Johnson,alice.johnson@example.com,1981-05-31,875 Walnut St,Springfield,FL,"4ff85e34-9da3-47f2-beee-ec6175d82186, f6cf2da9-277c-4780-8c18-2a4727d35f64, 34c2e9da-d62c-4fdd-ad94-7befd2595222, fe8da200-3e6c-4017-983e-19b5aff7e800, febd48e5-fa29-4288-94cf-a257e875bbc5",53eb39a7-15b9-4ce6-9f43-6631615946d7
c323ce23-bdf7-4015-b2c7-ceaf4926cf96,Sarah Johnson,sarah.johnson@example.com,1961-12-03,975 Elm St,Springfield,IL,"efbed11c-6828-4d9a-bdc3-ffadce27497e, 39af2a17-08ce-4282-8dd0-de4efe79980f",
c67261b0-98fc-475d-906e-bdea5d787488,John Brown,john.brown@example.com,1950-05-11,568 Elm St,Madison,PA,cc5f8133-74b9-43cc-b15e-b159a78b93fd,d33db813-df0e-46e1-8c2c-75ecfc8f8da1
c72bc0a8-c2fc-4ba2-b13e-776a3e0b342c,Alice Williams,alice.williams@example.com,1983-07-03,320 Elm St,Salem,NY,"34c2e9da-d62c-4fdd-ad94-7befd2595222, e00c66ff-cb22-45b1-a5e8-8b3cde249016, 3100982d-c037-4a3f-a3ed-83e66b248c8d",
c7543f3a-61ad-4c4b-81ab-cb8976fb54e7,Sarah Brown,sarah.brown@example.com,1969-09-28,373 Spruce St,Fairview,CA,"2c4e188e-85c2-4366-b282-d70974be0631, 2c4e188e-85c2-4366-b282-d70974be0631, 39af2a17-08ce-4282-8dd0-de4efe79980f",
c7da02c1-c796-413b-bbf9-6b05e048de4c,Michael Wilson,michael.wilson@example.com,1959-03-06,962 Maple St,Georgetown,FL,"febd48e5-fa29-4288-94cf-a257e875bbc5, fcda77f1-d71f-4cbe-bb5c-fb12877aec40, bc618e46-adeb-4bfa-a8dc-9e7a3bbad058, 32a60bdd-f493-4c44-a9e2-e45c0209be5e",8732ed5c-de8e-476d-86d6-796d4314a15a
c8b70f86-a12c-4217-a0cf-54e484d09ad0,Michael Johnson,michael.johnson@example.com,1966-05-16,845 Elm St,Fairview,IL,"4fc222e3-9728-408a-b24b-171c919f81ea, febd48e5-fa29-4288-94cf-a257e875bbc5, c782f52b-d7ac-47f5-836a-376e4fccf31f, e6f83c77-1538-4fec-934c-6a4ec6617268",
ca5fc090-eab6-4d16-98de-d96d3b48cd24,John Williams,john.williams@example.com,1958-07-03,168 Oak St,Madison,OH,"c782f52b-d7ac-47f5-836a-376e4fccf31f, 34c2e9da-d62c-4fdd-ad94-7befd2595222, c782f52b-d7ac-47f5-836a-376e4fccf31f, 3100982d-c037-4a3f-a3ed-83e66b248c8d, b12e86e4-dc4d-49cb-8ec3-b0c9f7f23b26",
cd99882f-b370-457d-83e0-ff8f6e31c5ae,James Wilson,james.wilson@example.com,1950-06-17,185 Maple St,Madison,NY,"036ab592-da37-4aac-ac4b-3a2eb132eb76, 6dfeb9a0-918b-4038-ae4f-63ab374b9311",b435b410-0fdc-4d8c-a929-9c8a7f553b01
cdc10f5b-b145-4fbc-add3-6b5943815662,Michael Taylor,michael.taylor@example.com,1996-05-19,815 Cedar St,Fairview,FL,"9cbfac3c-fb8a-4ebd-b677-c223a57ac329, 6dfeb9a0-918b-4038-ae4f-63ab374b9311",
ce1a9f7a-801e-433a-b3fe-e7ff42de73a4,David Wilson,david.wilson@example.com,2000-12-18,653 Spruce St,Greenville,CA,1e0b04ba-18d5-4ab9-a1e5-23449bbc4a0b,5eb515a8-d592-4c08-b3ee-4c0317e58cf0
ced04549-ceae-4532-8662-5d3f8f1bfef9,Bob Brown,bob.brown@example.com,1960-03-21,557 Walnut St,Salem,OH,"cc5f8133-74b9-43cc-b15e-b159a78b93fd, 5d92edf2-5248-4363-8e50-f18ad6a67a8c, 34c2e9da-d62c-4fdd-ad94-7befd2595222, 9630ccdb-1fb5-411d-a129-562993ba0569, efbed11c-6828-4d9a-bdc3-ffadce27497e",22fd0ff3-e556-4c84-92c2-ac33a074d291
d7f436b8-4cbd-47a2-9cd0-02520f4b898c,Bob Doe,bob.doe@example.com,1963-10-29,996 Cedar St,Salem,FL,"31a96803-e0b0-464c-b44c-14316de7195f, 6dfeb9a0-918b-4038-ae4f-63ab374b9311, bc618e46-adeb-4bfa-a8dc-9e7a3bbad058, 2c4e188e-85c2-4366-b282-d70974be0631, 1e0b04ba-18d5-4ab9-a1e5-23449bbc4a0b",648bbebe-cffa-4b5e-9bb5-f0f771e8e791
df9b246c-c193-4b9e-9df7-99cf4936288d,Emily Miller,emily.miller@example.com,1995-08-07,548 Pine St,Georgetown,OH,"2c6e4248-da4d-4cb3-ac58-3cd04aa203fa, fe8da200-3e6c-4017-983e-19b5aff7e800, 5538f94c-9d38-4c6c-ab29-0987d27ec313, 2ab329ca-9f50-4c70-9698-f44934cf4b69, 4fc222e3-9728-408a-b24b-171c919f81ea",9e91ff7a-9395-4507-bf25-d60f2bc84064
e10b1115-fe20-4328-8a5d-18e7599cd4aa,Sarah Doe,sarah.doe@example.com,1995-03-27,219 Birch St,Georgetown,NY,,
e2a266b6-c3fe-402c-b284-1e6248e36136,Emily Johnson,emily.johnson@example.com,1982-07-16,466 Birch St,Georgetown,CA,"e6f83c77-1538-4fec-934c-6a4ec6617268, f66e3050-2b7f-4d30-bc1e-f1c26d6a2aa2, 2c6e4248-da4d-4cb3-ac58-3cd04aa203fa",
e537603b-ac00-46b3-b19a-1b7f228fafc6,Alice Brown,alice.brown@example.com,1964-11-02,464 Pine St,Salem,TX,,
e5493518-b8fe-4db6-b2d5-5700f831ae00,Alice Smith,alice.smith@example.com,1998-03-27,698 Elm St,Riverside,TX,"efbed11c-6828-4d9a-bdc3-ffadce27497e, 49150744-aac2-44f9-8ca0-05ae90757bac, 036ab592-da37-4aac-ac4b-3a2eb132eb76, 49150744-aac2-44f9-8ca0-05ae90757bac, 4ad06de7-beaf-454c-aeda-59316f4a641c",
e6e7c418-4748-45f6-aab7-6066e88f0547,Emily Moore,emily.moore@example.com,1985-04-18,729 Birch St,Georgetown,OH,"fe8da200-3e6c-4017-983e-19b5aff7e800, c782f52b-d7ac-47f5-836a-376e4fccf31f, b43b2475-66e9-49df-b826-4dbb0bb15b8b, 9cbfac3c-fb8a-4ebd-b677-c223a57ac329",
e700dbb9-eb9c-4f65-8696-85af5e9ba0b1,James Taylor,james.taylor@example.com,1980-09-13,219 Elm St,Riverside,OH,"3100982d-c037-4a3f-a3ed-83e66b248c8d, 9630ccdb-1fb5-411d-a129-562993ba0569",8ef369de-a1cc-400b-b926-38854efbb4d4
e77c1dd3-125b-48bd-b23c-1bbe720dbd38,Alice Miller,alice.miller@example.com,1973-07-17,157 Spruce St,Madison,NY,,b7ef410c-7b75-489a-a2dc-cdf04f5d84ce
eaf8fb08-8829-46c3-8132-a7ad6d910827,Jane Johnson,jane.johnson@example.com,1958-11-13,295 Walnut St,Greenville,OH,"4ff85e34-9da3-47f2-beee-ec6175d82186, fe8da200-3e6c-4017-983e-19b5aff7e800",
eb0c6e28-ac6d-4545-9369-1b725af534f4,Emily Williams,emily.williams@example.com,1965-08-15,803 Birch St,Fairview,IL,,
ec436d65-2cf0-4213-8b3c-9ffb6756ac4e,James Brown,james.brown@example.com,1954-10-12,288 Elm St,Salem,TX,"5d92edf2-5248-4363-8e50-f18ad6a67a8c, 3100982d-c037-4a3f-a3ed-83e66b248c8d, 5d92edf2-5248-4363-8e50-f18ad6a67a8c, 1e0b04ba-18d5-4ab9-a1e5-23449bbc4a0b, 2ab329ca-9f50-4c70-9698-f44934cf4b69",
ee03afcc-2b1d-4dcc-ba2b-b27847585613,Alice Wilson,alice.wilson@example.com,1964-07-21,274 Cedar St,Madison,OH,"4fc222e3-9728-408a-b24b-171c919f81ea, 5d92edf2-5248-4363-8e50-f18ad6a67a8c",
f192a6f5-ee10-4b98-9518-995dbab6aa16,John Smith,john.smith@example.com,1998-12-12,700 Elm St,Salem,OH,"32a60bdd-f493-4c44-a9e2-e45c0209be5e, c782f52b-d7ac-47f5-836a-376e4fccf31f, 5538f94c-9d38-4c6c-ab29-0987d27ec313",
f3b6ca19-5168-48d0-b6ad-3fa43938535b,Sarah Miller,sarah.miller@example.com,1958-12-11,844 Cedar St,Riverside,FL,,225ea93d-fab8-4b9f-86f2-fab5abdda973
f4be7ed9-3445-4860-ae42-ca8ee4c6ad8f,Jane Wilson,jane.wilson@example.com,1969-03-02,680 Pine St,Springfield,PA,"e4aa68ec-6374-48d4-a36d-8ca39ac807a2, 9cbfac3c-fb8a-4ebd-b677-c223a57ac329",13c74d21-9303-488e-a8ac-adfd0bab5774
